CTC2_L_00382016-03
1 20224U 25217KS  26070.40847222  .00000000  00000+0  00000-0 0  9990
2 20224  45.0000 180.0000 0000000   0.0000   0.0000 12.90384021    11
CTC2_L_00382016-04
1 20225U 25756XN  26070.40847222  .00000000  00000+0  00000-0 0  9999
2 20225  45.0000 180.0000 0000000   0.0000  90.0000 12.90384021    11
CTC2_L_00382017-01
1 20226U 25799SY  26070.40847222  .00000000  00000+0  00000-0 0  9997
2 20226  45.0000 192.0000 0000000   0.0000 192.0000 12.90384021    18
CTC2_L_00382017-02
1 20227U 23780WW  26070.40847222  .00000000  00000+0  00000-0 0  9996
2 20227  45.0000 192.0000 0000000   0.0000 282.0000 12.90384021    19
CTC2_L_00382017-03
1 20228U 22592MX  26070.40847222  .00000000  00000+0  00000-0 0  9997
2 20228  45.0000 192.0000 0000000   0.0000  12.0000 12.90384021    11
CTC2_L_00382017-04
1 20229U 26868BA  26070.40847222  .00000000  00000+0  00000-0 0  9998
2 20229  45.0000 192.0000 0000000   0.0000 102.0000 12.90384021    12
CTC2_L_00382018-01
1 20230U 24024SQ  26070.40847222  .00000000  00000+0  00000-0 0  9992
2 20230  45.0000 204.0000 0000000   0.0000 204.0000 12.90384021    11
CTC2_L_00382018-02
1 20231U 22192EC  26070.40847222  .00000000  00000+0  00000-0 0  9997
2 20231  45.0000 204.0000 0000000   0.0000 294.0000 12.90384021    11
CTC2_L_00382018-03
1 20232U 22486QG  26070.40847222  .00000000  00000+0  00000-0 0  9994
2 20232  45.0000 204.0000 0000000   0.0000  24.0000 12.90384021    13
CTC2_L_00382018-04
1 20233U 24482QK  26070.40847222  .00000000  00000+0  00000-0 0  9993
2 20233  45.0000 204.0000 0000000   0.0000 114.0000 12.90384021    14
CTC2_L_00382019-01
1 20234U 26695PF  26070.40847222  .00000000  00000+0  00000-0 0  9992
2 20234  45.0000 216.0000 0000000   0.0000 216.0000 12.90384021    11
CTC2_L_00382019-02
1 20235U 25305JA  26070.40847222  .00000000  00000+0  00000-0 0  9990
2 20235  45.0000 216.0000 0000000   0.0000 306.0000 12.90384021    12
CTC2_L_00382019-03
1 20236U 25073JG  26070.40847222  .00000000  00000+0  00000-0 0  9993
2 20236  45.0000 216.0000 0000000   0.0000  36.0000 12.90384021    13
CTC2_L_00382019-04
1 20237U 23291BF  26070.40847222  .00000000  00000+0  00000-0 0  9994
2 20237  45.0000 216.0000 0000000   0.0000 126.0000 12.90384021    14
CTC2_L_00382020-01
1 20238U 24887NW  26070.40847222  .00000000  00000+0  00000-0 0  9997
2 20238  45.0000 228.0000 0000000   0.0000 228.0000 12.90384021    11
CTC2_L_00382020-02
1 20239U 23780F   26070.40847222  .00000000  00000+0  00000-0 0  9999
2 20239  45.0000 228.0000 0000000   0.0000 318.0000 12.90384021    12
CTC2_L_00382020-03
1 20240U 25352NU  26070.40847222  .00000000  00000+0  00000-0 0  9998
2 20240  45.0000 228.0000 0000000   0.0000  48.0000 12.90384021    14
CTC2_L_00382020-04
1 20241U 22727WM  26070.40847222  .00000000  00000+0  00000-0 0  9992
2 20241  45.0000 228.0000 0000000   0.0000 138.0000 12.90384021    15
CTC2_L_00382021-01
1 20242U 26253QF  26070.40847222  .00000000  00000+0  00000-0 0  9991
2 20242  45.0000 240.0000 0000000   0.0000 240.0000 12.90384021    14
CTC2_L_00382021-02
1 20243U 24731EX  26070.40847222  .00000000  00000+0  00000-0 0  9991
2 20243  45.0000 240.0000 0000000   0.0000 330.0000 12.90384021    15
CTC2_L_00382021-03
1 20244U 24183ZZ  26070.40847222  .00000000  00000+0  00000-0 0  9993
2 20244  45.0000 240.0000 0000000   0.0000  60.0000 12.90384021    16
CTC2_L_00382021-04
1 20245U 22467VU  26070.40847222  .00000000  00000+0  00000-0 0  9997
2 20245  45.0000 240.0000 0000000   0.0000 150.0000 12.90384021    17
CTC2_L_00382022-01
1 20246U 22670NV  26070.40847222  .00000000  00000+0  00000-0 0  9994
2 20246  45.0000 252.0000 0000000   0.0000 252.0000 12.90384021    14
CTC2_L_00382022-02
1 20247U 24076IH  26070.40847222  .00000000  00000+0  00000-0 0  9997
2 20247  45.0000 252.0000 0000000   0.0000 342.0000 12.90384021    15
CTC2_L_00382022-03
1 20248U 26215MH  26070.40847222  .00000000  00000+0  00000-0 0  9995
2 20248  45.0000 252.0000 0000000   0.0000  72.0000 12.90384021    16
CTC2_L_00382022-04
1 20249U 26374CB  26070.40847222  .00000000  00000+0  00000-0 0  9992
2 20249  45.0000 252.0000 0000000   0.0000 162.0000 12.90384021    17
CTC2_L_00382023-01
1 20250U 23864UE  26070.40847222  .00000000  00000+0  00000-0 0  9995
2 20250  45.0000 264.0000 0000000   0.0000 264.0000 12.90384021    15
CTC2_L_00382023-02
1 20251U 26700FS  26070.40847222  .00000000  00000+0  00000-0 0  9998
2 20251  45.0000 264.0000 0000000   0.0000 354.0000 12.90384021    16
CTC2_L_00382023-03
1 20252U 24525TF  26070.40847222  .00000000  00000+0  00000-0 0  9992
2 20252  45.0000 264.0000 0000000   0.0000  84.0000 12.90384021    17
CTC2_L_00382023-04
1 20253U 24621OP  26070.40847222  .00000000  00000+0  00000-0 0  9990
2 20253  45.0000 264.0000 0000000   0.0000 174.0000 12.90384021    18
CTC2_L_00382024-01
1 20254U 25946QN  26070.40847222  .00000000  00000+0  00000-0 0  9992
2 20254  45.0000 276.0000 0000000   0.0000 276.0000 12.90384021    15
CTC2_L_00382024-02
1 20255U 22900OY  26070.40847222  .00000000  00000+0  00000-0 0  9990
2 20255  45.0000 276.0000 0000000   0.0000   6.0000 12.90384021    17
CTC2_L_00382024-03
1 20256U 22726PG  26070.40847222  .00000000  00000+0  00000-0 0  9997
2 20256  45.0000 276.0000 0000000   0.0000  96.0000 12.90384021    17
CTC2_L_00382024-04
1 20257U 25936PK  26070.40847222  .00000000  00000+0  00000-0 0  9994
2 20257  45.0000 276.0000 0000000   0.0000 186.0000 12.90384021    18
CTC2_L_00382025-01
1 20258U 23008RK  26070.40847222  .00000000  00000+0  00000-0 0  9993
2 20258  45.0000 288.0000 0000000   0.0000 288.0000 12.90384021    15
CTC2_L_00382025-02
1 20259U 25958FE  26070.40847222  .00000000  00000+0  00000-0 0  9990
2 20259  45.0000 288.0000 0000000   0.0000  18.0000 12.90384021    17
CTC2_L_00382025-03
1 20260U 22142NL  26070.40847222  .00000000  00000+0  00000-0 0  9994
2 20260  45.0000 288.0000 0000000   0.0000 108.0000 12.90384021    19
CTC2_L_00382025-04
1 20261U 23373WQ  26070.40847222  .00000000  00000+0  00000-0 0  9992
2 20261  45.0000 288.0000 0000000   0.0000 198.0000 12.90384021    19
CTC2_L_00382026-01
1 20262U 26843UA  26070.40847222  .00000000  00000+0  00000-0 0  9998
2 20262  45.0000 300.0000 0000000   0.0000 300.0000 12.90384021    10
CTC2_L_00382026-02
1 20263U 26368JW  26070.40847222  .00000000  00000+0  00000-0 0  9991
2 20263  45.0000 300.0000 0000000   0.0000  30.0000 12.90384021    11
CTC2_L_00382026-03
1 20264U 26021UY  26070.40847222  .00000000  00000+0  00000-0 0  9998
2 20264  45.0000 300.0000 0000000   0.0000 120.0000 12.90384021    12
CTC2_L_00382026-04
1 20265U 24210PW  26070.40847222  .00000000  00000+0  00000-0 0  9997
2 20265  45.0000 300.0000 0000000   0.0000 210.0000 12.90384021    13
CTC2_L_00382027-01
1 20266U 22753SC  26070.40847222  .00000000  00000+0  00000-0 0  9998
2 20266  45.0000 312.0000 0000000   0.0000 312.0000 12.90384021    10
CTC2_L_00382027-02
1 20267U 25147XP  26070.40847222  .00000000  00000+0  00000-0 0  9999
2 20267  45.0000 312.0000 0000000   0.0000  42.0000 12.90384021    11
CTC2_L_00382027-03
1 20268U 22405OR  26070.40847222  .00000000  00000+0  00000-0 0  9994
2 20268  45.0000 312.0000 0000000   0.0000 132.0000 12.90384021    12
CTC2_L_00382027-04
1 20269U 22142ZE  26070.40847222  .00000000  00000+0  00000-0 0  9993
2 20269  45.0000 312.0000 0000000   0.0000 222.0000 12.90384021    13
CTC2_L_00382028-01
1 20270U 22715ID  26070.40847222  .00000000  00000+0  00000-0 0  9991
2 20270  45.0000 324.0000 0000000   0.0000 324.0000 12.90384021    11
CTC2_L_00382028-02
1 20271U 26675EZ  26070.40847222  .00000000  00000+0  00000-0 0  9991
2 20271  45.0000 324.0000 0000000   0.0000  54.0000 12.90384021    12
CTC2_L_00382028-03
1 20272U 22151RR  26070.40847222  .00000000  00000+0  00000-0 0  9997
2 20272  45.0000 324.0000 0000000   0.0000 144.0000 12.90384021    13
CTC2_L_00382028-04
1 20273U 24831BK  26070.40847222  .00000000  00000+0  00000-0 0  9995
2 20273  45.0000 324.0000 0000000   0.0000 234.0000 12.90384021    14
CTC2_L_00382029-01
1 20274U 24898RZ  26070.40847222  .00000000  00000+0  00000-0 0  9999
2 20274  45.0000 336.0000 0000000   0.0000 336.0000 12.90384021    11
CTC2_L_00382029-02
1 20275U 25097IX  26070.40847222  .00000000  00000+0  00000-0 0  9992
2 20275  45.0000 336.0000 0000000   0.0000  66.0000 12.90384021    12
CTC2_L_00382029-03
1 20276U 26295TD  26070.40847222  .00000000  00000+0  00000-0 0  9994
2 20276  45.0000 336.0000 0000000   0.0000 156.0000 12.90384021    13
CTC2_L_00382029-04
1 20277U 22702WR  26070.40847222  .00000000  00000+0  00000-0 0  9994
2 20277  45.0000 336.0000 0000000   0.0000 246.0000 12.90384021    14
CTC2_L_00382030-01
1 20278U 22158ZA  26070.40847222  .00000000  00000+0  00000-0 0  9990
2 20278  45.0000 348.0000 0000000   0.0000 348.0000 12.90384021    11
CTC2_L_00382030-02
1 20279U 22415WH  26070.40847222  .00000000  00000+0  00000-0 0  9997
2 20279  45.0000 348.0000 0000000   0.0000  78.0000 12.90384021    12
CTC2_L_00382030-03
1 20280U 22297XH  26070.40847222  .00000000  00000+0  00000-0 0  9997
2 20280  45.0000 348.0000 0000000   0.0000 168.0000 12.90384021    14
CTC2_L_00382030-04
1 20281U 26455MS  26070.40847222  .00000000  00000+0  00000-0 0  9998
2 20281  45.0000 348.0000 0000000   0.0000 258.0000 12.90384021    15
